[{"OBJECT_NAME":"STARLINK-32330","OBJECT_ID":"2024-202F","EPOCH":"2026-03-09T12:07:55.818624","MEAN_MOTION":15.2757175,"ECCENTRICITY":0.00015872,"INCLINATION":42.9996,"RA_OF_ASC_NODE":238.6698,"ARG_OF_PERICENTER":280.5602,"MEAN_ANOMALY":79.507,"EPHEMERIS_TYPE":0,"CLASSIFICATION_TYPE":"U","NORAD_CAT_ID":61850,"ELEMENT_SET_NO":999,"REV_AT_EPOCH":7531,"BSTAR":1.8173231e-5,"MEAN_MOTION_DOT":2.38e-6,"MEAN_MOTION_DDOT":0},{"OBJECT_NAME":"TEVEL2-6","OBJECT_ID":"2025-052F","EPOCH":"2026-03-09T15:35:24.554400","MEAN_MOTION":15.30760889,"ECCENTRICITY":0.0004769,"INCLINATION":97.4016,"RA_OF_ASC_NODE":325.0381,"ARG_OF_PERICENTER":95.6604,"MEAN_ANOMALY":264.5181,"EPHEMERIS_TYPE":0,"CLASSIFICATION_TYPE":"U","NORAD_CAT_ID":63215,"ELEMENT_SET_NO":999,"REV_AT_EPOCH":5486,"BSTAR":0.00070909,"MEAN_MOTION_DOT":0.00021046,"MEAN_MOTION_DDOT":0}]
